[{"OBJECT_NAME":"SITRO-AIS 8 (ANOKHIN)","OBJECT_ID":"2023-091AD","EPOCH":"2026-03-09T23:44:40.058592","MEAN_MOTION":15.29359179,"ECCENTRICITY":0.0012509,"INCLINATION":97.5169,"RA_OF_ASC_NODE":133.2823,"ARG_OF_PERICENTER":92.0171,"MEAN_ANOMALY":268.2501,"EPHEMERIS_TYPE":0,"CLASSIFICATION_TYPE":"U","NORAD_CAT_ID":57193,"ELEMENT_SET_NO":999,"REV_AT_EPOCH":14927,"BSTAR":0.00064982524,"MEAN_MOTION_DOT":0.00018494,"MEAN_MOTION_DDOT":0},{"OBJECT_NAME":"STARLINK-32621","OBJECT_ID":"2024-239C","EPOCH":"2026-03-09T12:57:27.656352","MEAN_MOTION":15.30171402,"ECCENTRICITY":0.00010697,"INCLINATION":53.1574,"RA_OF_ASC_NODE":181.6429,"ARG_OF_PERICENTER":97.8064,"MEAN_ANOMALY":262.3058,"EPHEMERIS_TYPE":0,"CLASSIFICATION_TYPE":"U","NORAD_CAT_ID":62303,"ELEMENT_SET_NO":999,"REV_AT_EPOCH":6954,"BSTAR":0.0012502777,"MEAN_MOTION_DOT":0.00036821,"MEAN_MOTION_DDOT":0}]
